NORAD_CAT_ID,OBJECT_NAME,OBJECT_TYPE,EPOCH,MEAN_MOTION,ECCENTRICITY,INCLINATION,RA_OF_ASC_NODE,ARG_OF_PERICENTER,MEAN_ANOMALY,BSTAR,MEAN_MOTION_DOT,MEAN_MOTION_DDOT,TLE_LINE0,TLE_LINE1,TLE_LINE2,SEMIMAJOR_AXIS,PERIOD,APOGEE,PERIGEE,DECAYED
53707.0,STARLINK-4667,PAYLOAD,2024-07-28 17:53:46,15.0887714,0.0001115,53.2181,353.0073,110.6112,249.5,-0.00082855,-0.00013463,0.0,0 STARLINK-4667,1 53707U 22107H   24210.74567767 -.00013463  00000-0 -82855-3 0  9992,2 53707  53.2181 353.0073 0001115 110.6112 249.5000 15.08877140105406,6917.767,95.435,540.403,538.861,0.0
53707.0,STARLINK-4667,PAYLOAD,2024-07-29 09:47:39,15.08844132,0.0001363,53.2179,350.0338,104.2514,255.863,0.00043386,6.624e-05,0.0,0 STARLINK-4667,1 53707U 22107H   24211.40810010  .00006624  00000-0  43386-3 0  9993,2 53707  53.2179 350.0338 0001363 104.2514 255.8630 15.08844132105509,6917.868,95.437,540.676,538.79,0.0
53707.0,STARLINK-4667,PAYLOAD,2024-07-29 17:44:35,15.08848669,0.0001361,53.2181,348.547,93.2698,266.845,0.00032074,4.822e-05,0.0,0 STARLINK-4667,1 53707U 22107H   24211.73929828  .00004822  00000-0  32074-3 0  9997,2 53707  53.2181 348.5470 0001361  93.2698 266.8450 15.08848669106309,6917.854,95.437,540.66,538.777,0.0
53707.0,STARLINK-4667,PAYLOAD,2024-07-30 09:38:26,15.08862296,0.0002856,53.2175,345.5734,75.655,284.4759,0.0004909,7.538e-05,0.0,0 STARLINK-4667,1 53707U 22107H   24212.40169391  .00007538  00000-0  49090-3 0  9996,2 53707  53.2175 345.5734 0002856  75.6550 284.4759 15.08862296106404,6917.812,95.436,541.653,537.702,0.0
53707.0,STARLINK-4667,PAYLOAD,2024-07-30 15:59:58,15.0885225,0.0002303,53.2186,344.3847,96.3976,263.7279,0.00020254,2.938e-05,0.0,0 STARLINK-4667,1 53707U 22107H   24212.66665342  .00002938  00000-0  20254-3 0  9991,2 53707  53.2186 344.3847 0002303  96.3976 263.7279 15.08852250105693,6917.843,95.437,541.301,538.115,0.0
53707.0,STARLINK-4667,PAYLOAD,2024-07-31 12:40:00,15.08836306,4.59e-05,53.2157,340.5197,3.2654,356.8341,2.3145e-05,8.1e-07,0.0,0 STARLINK-4667,1 53707U 22107H   24213.52777936  .00000081  00000-0  23145-4 0  9990,2 53707  53.2157 340.5197 0000459   3.2654 356.8341 15.08836306105820,6917.892,95.438,540.074,539.439,0.0
53707.0,STARLINK-4667,PAYLOAD,2024-07-31 14:15:23,15.08825627,0.0001561,53.2154,340.2215,128.85,231.2632,-0.00027657,-4.685e-05,0.0,0 STARLINK-4667,1 53707U 22107H   24213.59401968 -.00004685  00000-0 -27657-3 0  9993,2 53707  53.2154 340.2215 0001561 128.8500 231.2632 15.08825627106581,6917.924,95.438,540.869,538.709,0.0
53707.0,STARLINK-4667,PAYLOAD,2024-07-31 17:26:09,15.08829007,0.0001327,53.2169,339.627,103.3891,256.7249,-0.00015482,-2.75e-05,0.0,0 STARLINK-4667,1 53707U 22107H   24213.72650165 -.00002750  00000-0 -15482-3 0  9997,2 53707  53.2169 339.6270 0001327 103.3891 256.7249 15.08829007106606,6917.914,95.438,540.697,538.861,0.0
53707.0,STARLINK-4667,PAYLOAD,2024-08-01 12:30:47,15.08840668,0.000149,53.2161,336.0575,92.4493,267.6669,0.00019253,2.778e-05,0.0,0 STARLINK-4667,1 53707U 22107H   24214.52138018  .00002778  00000-0  19253-3 0  9992,2 53707  53.2161 336.0575 0001490  92.4493 267.6669 15.08840668106720,6917.878,95.438,540.774,538.713,0.0
53707.0,STARLINK-4667,PAYLOAD,2024-08-01 17:16:56,15.08852307,0.0001208,53.2144,335.1664,80.0971,280.0158,0.00035323,5.34e-05,0.0,0 STARLINK-4667,1 53707U 22107H   24214.72009737  .00005340  00000-0  35323-3 0  9993,2 53707  53.2144 335.1664 0001208  80.0971 280.0158 15.08852307106007,6917.843,95.437,540.543,538.872,0.0
53707.0,STARLINK-4667,PAYLOAD,2024-08-02 01:13:51,15.08871467,0.0001742,53.2162,333.678,74.0658,286.0526,0.00070943,0.0001103,0.0,0 STARLINK-4667,1 53707U 22107H   24215.05128785  .00011030  00000-0  70943-3 0  9995,2 53707  53.2162 333.6780 0001742  74.0658 286.0526 15.08871467106055,6917.784,95.436,540.854,538.444,0.0
53707.0,STARLINK-4667,PAYLOAD,2024-08-02 13:56:56,15.08848346,0.0001244,53.2173,331.3021,87.3993,272.7142,0.00014764,2.063e-05,0.0,0 STARLINK-4667,1 53707U 22107H   24215.58121168  .00002063  00000-0  14764-3 0  9996,2 53707  53.2173 331.3021 0001244  87.3993 272.7142 15.08848346106131,6917.855,95.437,540.58,538.859,0.0
53707.0,STARLINK-4667,PAYLOAD,2024-08-02 15:32:19,15.08854855,0.0001362,53.2166,331.0046,87.5467,272.5681,0.00039144,5.95e-05,0.0,0 STARLINK-4667,1 53707U 22107H   24215.64745024  .00005950  00000-0  39144-3 0  9993,2 53707  53.2166 331.0046 0001362  87.5467 272.5681 15.08854855106897,6917.835,95.437,540.642,538.758,0.0
53707.0,STARLINK-4667,PAYLOAD,2024-08-03 01:04:37,15.0886828,0.0001407,53.2164,329.2198,84.3169,275.7984,0.00046838,7.18e-05,0.0,0 STARLINK-4667,1 53707U 22107H   24216.04488132  .00007180  00000-0  46838-3 0  9997,2 53707  53.2164 329.2198 0001407  84.3169 275.7984 15.08868280106209,6917.794,95.436,540.632,538.686,0.0
53707.0,STARLINK-4667,PAYLOAD,2024-08-03 13:47:43,15.08820462,0.0001504,53.2181,326.8381,108.4865,251.629,-0.00052226,-8.586e-05,0.0,0 STARLINK-4667,1 53707U 22107H   24216.57481212 -.00008586  00000-0 -52226-3 0  9998,2 53707  53.2181 326.8381 0001504 108.4865 251.6290 15.08820462106285,6917.94,95.439,540.846,538.765,0.0
53707.0,STARLINK-4667,PAYLOAD,2024-08-03 16:58:30,15.08826448,0.000162,53.218,326.2424,110.8364,249.2802,8.1211e-05,1.004e-05,0.0,0 STARLINK-4667,1 53707U 22107H   24216.70729377  .00001004  00000-0  81211-4 0  9993,2 53707  53.2180 326.2424 0001620 110.8364 249.2802 15.08826448107054,6917.922,95.438,540.908,538.666,0.0
53707.0,STARLINK-4667,PAYLOAD,2024-08-04 00:55:26,15.08831758,0.0001616,53.218,324.7553,111.1436,248.9729,0.00095548,0.00014948,0.0,0 STARLINK-4667,1 53707U 22107H   24217.03849855  .00014948  00000-0  95548-3 0  9992,2 53707  53.2180 324.7553 0001616 111.1436 248.9729 15.08831758106355,6917.906,95.438,540.889,538.653,0.0
53707.0,STARLINK-4667,PAYLOAD,2024-08-04 13:38:31,15.08830353,0.0001734,53.2178,322.3793,98.2576,261.8612,0.00067543,0.00010475,0.0,0 STARLINK-4667,1 53707U 22107H   24217.56842580  .00010475  00000-0  67543-3 0  9993,2 53707  53.2178 322.3793 0001734  98.2576 261.8612 15.08830353106437,6917.91,95.438,540.974,538.575,0.0
53707.0,STARLINK-4667,PAYLOAD,2024-08-04 16:49:18,15.0884038,0.0001727,53.2172,321.7836,94.6918,265.4271,0.00076655,0.00011933,0.0,0 STARLINK-4667,1 53707U 22107H   24217.70090380  .00011933  00000-0  76655-3 0  9996,2 53707  53.2172 321.7836 0001727  94.6918 265.4271 15.08840380107202,6917.879,95.438,540.939,538.55,0.0
53707.0,STARLINK-4667,PAYLOAD,2024-08-05 11:53:55,15.0884166,0.0001402,53.2173,318.2134,89.8432,270.2721,0.00036603,5.542e-05,0.0,0 STARLINK-4667,1 53707U 22107H   24218.49578405  .00005542  00000-0  36603-3 0  9990,2 53707  53.2173 318.2134 0001402  89.8432 270.2721 15.08841660106577,6917.875,95.437,540.71,538.77,0.0
53707.0,STARLINK-4667,PAYLOAD,2024-08-05 13:29:18,15.08840835,0.0001318,53.2175,317.9173,89.4295,270.6848,0.00029967,4.485e-05,0.0,0 STARLINK-4667,1 53707U 22107H   24218.56202363  .00004485  00000-0  29967-3 0  9995,2 53707  53.2175 317.9173 0001318  89.4295 270.6848 15.08840835107339,6917.878,95.438,540.655,538.831,0.0
53707.0,STARLINK-4667,PAYLOAD,2024-08-06 13:20:06,15.08824951,0.0001222,53.2174,313.4598,98.9832,261.1298,-1.6641e-05,-5.53e-06,0.0,0 STARLINK-4667,1 53707U 22107H   24219.55563238 -.00000553  00000-0 -16641-4 0  9996,2 53707  53.2174 313.4598 0001222  98.9832 261.1298 15.08824951106734,6917.926,95.439,540.637,538.946,0.0
53707.0,STARLINK-4667,PAYLOAD,2024-08-06 16:30:52,15.08829294,0.0001251,53.2177,312.8634,99.3464,260.7669,-6.9002e-05,-1.386e-05,0.0,0 STARLINK-4667,1 53707U 22107H   24219.68811091 -.00001386  00000-0 -69002-4 0  9997,2 53707  53.2177 312.8634 0001251  99.3464 260.7669 15.08829294107507,6917.913,95.438,540.644,538.913,0.0
53707.0,STARLINK-4667,PAYLOAD,2024-08-07 05:13:57,15.08837365,0.0001223,53.2174,310.4857,98.7505,261.3625,7.1644e-05,8.52e-06,0.0,0 STARLINK-4667,1 53707U 22107H   24220.21802901  .00000852  00000-0  71644-4 0  9998,2 53707  53.2174 310.4857 0001223  98.7505 261.3625 15.08837365106835,6917.888,95.438,540.6,538.907,0.0
53707.0,STARLINK-4667,PAYLOAD,2024-08-07 11:35:29,15.08846465,0.0001242,53.2172,309.2967,101.4145,258.6986,0.0002008,2.91e-05,0.0,0 STARLINK-4667,1 53707U 22107H   24220.48298494  .00002910  00000-0  20080-3 0  9997,2 53707  53.2172 309.2967 0001242 101.4145 258.6986 15.08846465107622,6917.861,95.437,540.585,538.866,0.0
53707.0,STARLINK-4667,PAYLOAD,2024-08-08 13:01:39,15.0884723,0.0001332,53.2167,304.5402,95.2327,264.8817,0.00030374,4.55e-05,0.0,0 STARLINK-4667,1 53707U 22107H   24221.54282366  .00004550  00000-0  30374-3 0  9995,2 53707  53.2167 304.5402 0001332  95.2327 264.8817 15.08847230107780,6917.858,95.437,540.645,538.802,0.0
53707.0,STARLINK-4667,PAYLOAD,2024-08-08 22:33:58,15.0885855,0.000126,53.2171,302.7533,92.2933,267.8204,0.00033855,5.107e-05,0.0,0 STARLINK-4667,1 53707U 22107H   24221.94025475  .00005107  00000-0  33855-3 0  9991,2 53707  53.2171 302.7533 0001260  92.2933 267.8204 15.08858550107847,6917.824,95.436,540.56,538.817,0.0
53707.0,STARLINK-4667,PAYLOAD,2024-08-09 12:52:26,15.08842071,0.0001365,53.2163,300.0781,102.0765,258.038,-1.885e-05,-5.88e-06,0.0,0 STARLINK-4667,1 53707U 22107H   24222.53642202 -.00000588  00000-0 -18850-4 0  9999,2 53707  53.2163 300.0781 0001365 102.0765 258.0380 15.08842071107188,6917.874,95.437,540.683,538.795,0.0
53707.0,STARLINK-4667,PAYLOAD,2024-08-09 14:27:49,15.08843187,0.0001381,53.2162,299.7806,106.6999,253.4145,8.9066e-06,-1.46e-06,0.0,0 STARLINK-4667,1 53707U 22107H   24222.60266140 -.00000146  00000-0  89066-5 0  9997,2 53707  53.2162 299.7806 0001381 106.6999 253.4145 15.08843187107947,6917.871,95.437,540.691,538.78,0.0
53707.0,STARLINK-4667,PAYLOAD,2024-08-10 12:43:14,15.08829367,0.0001346,53.2152,295.6161,108.3524,251.7615,-7.7893e-05,-1.527e-05,0.0,0 STARLINK-4667,1 53707U 22107H   24223.53003294 -.00001527  00000-0 -77893-4 0  9998,2 53707  53.2152 295.6161 0001346 108.3524 251.7615 15.08829367107339,6917.913,95.438,540.709,538.847,0.0
